{"type": "FeatureCollection", "features": [ {"type": "Feature", "properties": {"norad_id": 30569, "name": "FENGYUN 1C DEB", "group": "fengyun-1c-debris", "lat": 7.335975046059748, "lon": -53.506896374340485, "alt_km": 650.7516303547472, "timestamp": "2025-12-12T09:49:09.008936+00:00", "meta": {"OBJECT_NAME": "FENGYUN 1C DEB", "OBJECT_ID": "1999-025ALK", "EPOCH": "2025-12-11T20:00:10.373760", "MEAN_MOTION": 14.73607155, "ECCENTRICITY": 0.00062063, "INCLINATION": 98.7366, "RA_OF_ASC_NODE": 124.7392, "ARG_OF_PERICENTER": 93.3452, "MEAN_ANOMALY": 266.8464, "EPHEMERIS_TYPE": 0, "CLASSIFICATION_TYPE": "U", "NORAD_CAT_ID": 30569, "ELEMENT_SET_NO": 999, "REV_AT_EPOCH": 98193, "BSTAR": 0.0047696109, "MEAN_MOTION_DOT": 0.00031155, "MEAN_MOTION_DDOT": 0}, "tle": {"line1": "1 30569U 99025ALK 25345.83345340  .00031155  00000+0  47696-2 0  9995", "line2": "2 30569  98.7366 124.7392 0006206  93.3452 266.8464 14.73607155981937"}}, "geometry": {"type": "Point", "coordinates": [-53.506896374340485, 7.335975046059748]}}, {"type": "Feature", "properties": {"norad_id": 30570, "name": "FENGYUN 1C DEB", "group": "fengyun-1c-debris", "lat": 60.840667039142005, "lon": -145.10527506527671, "alt_km": 840.9851908577648, "timestamp": "2025-12-12T09:49:09.008946+00:00", "meta": {"OBJECT_NAME": "FENGYUN 1C DEB", "OBJECT_ID": "1999-025ALL", "EPOCH": "2025-12-12T01:03:23.846400", "MEAN_MOTION": 14.14266508, "ECCENTRICITY": 0.0035235, "INCLINATION": 98.7152, "RA_OF_ASC_NODE": 18.5815, "ARG_OF_PERICENTER": 213.9216, "MEAN_ANOMALY": 206.5203, "EPHEMERIS_TYPE": 0, "CLASSIFICATION_TYPE": "U", "NORAD_CAT_ID": 30570, "ELEMENT_SET_NO": 999, "REV_AT_EPOCH": 96988, "BSTAR": 0.0006734, "MEAN_MOTION_DOT": 1.25e-05, "MEAN_MOTION_DDOT": 0}, "tle": {"line1": "1 30570U 99025ALL 25346.04402600  .00001250  00000+0  67340-3 0  9996", "line2": "2 30570  98.7152  18.5815 0035235 213.9216 206.5203 14.14266508969884"}}, "geometry": {"type": "Point", "coordinates": [-145.10527506527671, 60.840667039142005]}}, {"type": "Feature", "properties": {"norad_id": 30571, "name": "FENGYUN 1C DEB", "group": "fengyun-1c-debris", "lat": 57.81466683971806, "lon": -1.500842163407344, "alt_km": 866.3892314735531, "timestamp": "2025-12-12T09:49:09.008957+00:00", "meta": {"OBJECT_NAME": "FENGYUN 1C DEB", "OBJECT_ID": "1999-025ALM", "EPOCH": "2025-12-12T01:19:57.601056", "MEAN_MOTION": 14.1069444, "ECCENTRICITY": 0.0020781, "INCLINATION": 98.7313, "RA_OF_ASC_NODE": 12.2887, "ARG_OF_PERICENTER": 235.9549, "MEAN_ANOMALY": 188.2396, "EPHEMERIS_TYPE": 0, "CLASSIFICATION_TYPE": "U", "NORAD_CAT_ID": 30571, "ELEMENT_SET_NO": 999, "REV_AT_EPOCH": 96877, "BSTAR": 0.00034797, "MEAN_MOTION_DOT": 5.8e-06, "MEAN_MOTION_DDOT": 0}, "tle": {"line1": "1 30571U 99025ALM 25346.05552779  .00000580  00000+0  34797-3 0  9996", "line2": "2 30571  98.7313  12.2887 0020781 235.9549 188.2396 14.10694440968779"}}, "geometry": {"type": "Point", "coordinates": [-1.500842163407344, 57.81466683971806]}}, {"type": "Feature", "properties": {"norad_id": 30572, "name": "FENGYUN 1C DEB", "group": "fengyun-1c-debris", "lat": -32.12969660481569, "lon": 21.605916670895223, "alt_km": 856.227744128194, "timestamp": "2025-12-12T09:49:09.008967+00:00", "meta": {"OBJECT_NAME": "FENGYUN 1C DEB", "OBJECT_ID": "1999-025ALN", "EPOCH": "2025-12-12T01:42:36.748224", "MEAN_MOTION": 14.08920547, "ECCENTRICITY": 0.0021127, "INCLINATION": 98.7722, "RA_OF_ASC_NODE": 15.7123, "ARG_OF_PERICENTER": 295.6012, "MEAN_ANOMALY": 119.0357, "EPHEMERIS_TYPE": 0, "CLASSIFICATION_TYPE": "U", "NORAD_CAT_ID": 30572, "ELEMENT_SET_NO": 999, "REV_AT_EPOCH": 96752, "BSTAR": 0.00036992, "MEAN_MOTION_DOT": 5.98e-06, "MEAN_MOTION_DDOT": 0}, "tle": {"line1": "1 30572U 99025ALN 25346.07125866  .00000598  00000+0  36992-3 0  9990", "line2": "2 30572  98.7722  15.7123 0021127 295.6012 119.0357 14.08920547967526"}}, "geometry": {"type": "Point", "coordinates": [21.605916670895223, -32.12969660481569]}}, {"type": "Feature", "properties": {"norad_id": 30573, "name": "FENGYUN 1C DEB", "group": "fengyun-1c-debris", "lat": -68.46417787513123, "lon": 179.80990098257027, "alt_km": 795.298503419499, "timestamp": "2025-12-12T09:49:09.008978+00:00", "meta": {"OBJECT_NAME": "FENGYUN 1C DEB", "OBJECT_ID": "1999-025ALP", "EPOCH": "2025-12-12T00:30:29.443104", "MEAN_MOTION": 14.13830045, "ECCENTRICITY": 0.0088239, "INCLINATION": 99.2271, "RA_OF_ASC_NODE": 23.7345, "ARG_OF_PERICENTER": 275.8091, "MEAN_ANOMALY": 161.4822, "EPHEMERIS_TYPE": 0, "CLASSIFICATION_TYPE": "U", "NORAD_CAT_ID": 30573, "ELEMENT_SET_NO": 999, "REV_AT_EPOCH": 96187, "BSTAR": 0.0026218, "MEAN_MOTION_DOT": 5.109e-05, "MEAN_MOTION_DDOT": 0}, "tle": {"line1": "1 30573U 99025ALP 25346.02117411  .00005109  00000+0  26218-2 0  9995", "line2": "2 30573  99.2271  23.7345 0088239 275.8091 161.4822 14.13830045961870"}}, "geometry": {"type": "Point", "coordinates": [179.80990098257027, -68.46417787513123]}}, {"type": "Feature", "properties": {"norad_id": 30574, "name": "FENGYUN 1C DEB", "group": "fengyun-1c-debris", "lat": -44.19149741189943, "lon": -39.16156338691802, "alt_km": 1065.843322850128, "timestamp": "2025-12-12T09:49:09.008988+00:00", "meta": {"OBJECT_NAME": "FENGYUN 1C DEB", "OBJECT_ID": "1999-025ALQ", "EPOCH": "2025-12-11T10:03:26.289792", "MEAN_MOTION": 13.77512791, "ECCENTRICITY": 0.0219325, "INCLINATION": 99.302, "RA_OF_ASC_NODE": 149.0367, "ARG_OF_PERICENTER": 350.9796, "MEAN_ANOMALY": 8.7444, "EPHEMERIS_TYPE": 0, "CLASSIFICATION_TYPE": "U", "NORAD_CAT_ID": 30574, "ELEMENT_SET_NO": 999, "REV_AT_EPOCH": 93750, "BSTAR": 0.0031904769, "MEAN_MOTION_DOT": 3.752e-05, "MEAN_MOTION_DDOT": 0}, "tle": {"line1": "1 30574U 99025ALQ 25345.41905428  .00003752  00000+0  31905-2 0  9992", "line2": "2 30574  99.3020 149.0367 0219325 350.9796   8.7444 13.77512791937509"}}, "geometry": {"type": "Point", "coordinates": [-39.16156338691802, -44.19149741189943]}}, {"type": "Feature", "properties": {"norad_id": 30575, "name": "FENGYUN 1C DEB", "group": "fengyun-1c-debris", "lat": -68.16915923396816, "lon": 101.0824007620624, "alt_km": 741.8564491182788, "timestamp": "2025-12-12T09:49:09.008999+00:00", "meta": {"OBJECT_NAME": "FENGYUN 1C DEB", "OBJECT_ID": "1999-025ALR", "EPOCH": "2025-12-11T18:10:49.340064", "MEAN_MOTION": 14.40052317, "ECCENTRICITY": 0.0054102, "INCLINATION": 99.1694, "RA_OF_ASC_NODE": 76.6066, "ARG_OF_PERICENTER": 239.4028, "MEAN_ANOMALY": 273.8479, "EPHEMERIS_TYPE": 0, "CLASSIFICATION_TYPE": "U", "NORAD_CAT_ID": 30575, "ELEMENT_SET_NO": 999, "REV_AT_EPOCH": 98203, "BSTAR": 0.0016772161, "MEAN_MOTION_DOT": 5.333e-05, "MEAN_MOTION_DDOT": 0}, "tle": {"line1": "1 30575U 99025ALR 25345.75751551  .00005333  00000+0  16772-2 0  9998", "line2": "2 30575  99.1694  76.6066 0054102 239.4028 273.8479 14.40052317982030"}}, "geometry": {"type": "Point", "coordinates": [101.0824007620624, -68.16915923396816]}}, {"type": "Feature", "properties": {"norad_id": 30577, "name": "FENGYUN 1C DEB", "group": "fengyun-1c-debris", "lat": 15.580273943435396, "lon": 17.880327244326743, "alt_km": 857.0537855008342, "timestamp": "2025-12-12T09:49:09.009008+00:00", "meta": {"OBJECT_NAME": "FENGYUN 1C DEB", "OBJECT_ID": "1999-025ALT", "EPOCH": "2025-12-12T01:22:31.120032", "MEAN_MOTION": 14.11142121, "ECCENTRICITY": 0.0028607, "INCLINATION": 98.7706, "RA_OF_ASC_NODE": 20.0039, "ARG_OF_PERICENTER": 284.1671, "MEAN_ANOMALY": 105.0585, "EPHEMERIS_TYPE": 0, "CLASSIFICATION_TYPE": "U", "NORAD_CAT_ID": 30577, "ELEMENT_SET_NO": 999, "REV_AT_EPOCH": 96775, "BSTAR": 0.0006886, "MEAN_MOTION_DOT": 1.202e-05, "MEAN_MOTION_DDOT": 0}, "tle": {"line1": "1 30577U 99025ALT 25346.05730463  .00001202  00000+0  68860-3 0  9990", "line2": "2 30577  98.7706  20.0039 0028607 284.1671 105.0585 14.11142121967753"}}, "geometry": {"type": "Point", "coordinates": [17.880327244326743, 15.580273943435396]}}, {"type": "Feature", "properties": {"norad_id": 30579, "name": "FENGYUN 1C DEB", "group": "fengyun-1c-debris", "lat": -48.0090931453041, "lon": -178.82410471699154, "alt_km": 904.2239373915518, "timestamp": "2025-12-12T09:49:09.009019+00:00", "meta": {"OBJECT_NAME": "FENGYUN 1C DEB", "OBJECT_ID": "1999-025ALV", "EPOCH": "2025-12-11T12:58:35.024160", "MEAN_MOTION": 14.05247817, "ECCENTRICITY": 0.00536973, "INCLINATION": 98.807, "RA_OF_ASC_NODE": 10.2503, "ARG_OF_PERICENTER": 106.8958, "MEAN_ANOMALY": 50.3292, "EPHEMERIS_TYPE": 0, "CLASSIFICATION_TYPE": "U", "NORAD_CAT_ID": 30579, "ELEMENT_SET_NO": 999, "REV_AT_EPOCH": 96440, "BSTAR": 0.00060649233, "MEAN_MOTION_DOT": 9.51e-06, "MEAN_MOTION_DDOT": 0}, "tle": {"line1": "1 30579U 99025ALV 25345.54068315  .00000951  00000+0  60649-3 0  9992", "line2": "2 30579  98.8070  10.2503 0053697 106.8958  50.3292 14.05247817964409"}}, "geometry": {"type": "Point", "coordinates": [-178.82410471699154, -48.0090931453041]}}, {"type": "Feature", "properties": {"norad_id": 30594, "name": "FENGYUN 1C DEB", "group": "fengyun-1c-debris", "lat": 48.37595023736172, "lon": 33.032090693325074, "alt_km": 968.579891620464, "timestamp": "2025-12-12T09:49:09.009030+00:00", "meta": {"OBJECT_NAME": "FENGYUN 1C DEB", "OBJECT_ID": "1999-025ALZ", "EPOCH": "2025-12-10T13:08:55.884192", "MEAN_MOTION": 14.17337284, "ECCENTRICITY": 0.0193492, "INCLINATION": 99.1513, "RA_OF_ASC_NODE": 200.6638, "ARG_OF_PERICENTER": 322.5898, "MEAN_ANOMALY": 36.1934, "EPHEMERIS_TYPE": 0, "CLASSIFICATION_TYPE": "U", "NORAD_CAT_ID": 30594, "ELEMENT_SET_NO": 999, "REV_AT_EPOCH": 97548, "BSTAR": 0.00028585, "MEAN_MOTION_DOT": 6.45e-06, "MEAN_MOTION_DDOT": 0}, "tle": {"line1": "1 30594U 99025ALZ 25344.54786903  .00000645  00000+0  28585-3 0  9991", "line2": "2 30594  99.1513 200.6638 0193492 322.5898  36.1934 14.17337284975480"}}, "geometry": {"type": "Point", "coordinates": [33.032090693325074, 48.37595023736172]}}]}